CTC1_L_00131001-01
1 55770U 24340MD  26037.47802083  .00000000  00000+0  00000-0 0  9996
2 55770  40.0000   0.0000 0000000   0.0000   0.0000 14.15679836    11
CTC1_L_00131001-02
1 55771U 26482EI  26037.47802083  .00000000  00000+0  00000-0 0  9996
2 55771  40.0000   0.0000 0000000   0.0000  90.0000 14.15679836    11
CTC1_L_00131001-03
1 55772U 23025GH  26037.47802083  .00000000  00000+0  00000-0 0  9997
2 55772  40.0000   0.0000 0000000   0.0000 180.0000 14.15679836    12
CTC1_L_00131001-04
1 55773U 23224MC  26037.47802083  .00000000  00000+0  00000-0 0  9999
2 55773  40.0000   0.0000 0000000   0.0000 270.0000 14.15679836    13
CTC1_L_00131002-01
1 55774U 25036YR  26037.47802083  .00000000  00000+0  00000-0 0  9993
2 55774  40.0000  12.0000 0000000   0.0000  12.0000 14.15679836    11
CTC1_L_00131002-02
1 55775U 24796ME  26037.47802083  .00000000  00000+0  00000-0 0  9996
2 55775  40.0000  12.0000 0000000   0.0000 102.0000 14.15679836    12
CTC1_L_00131002-03
1 55776U 25078PH  26037.47802083  .00000000  00000+0  00000-0 0  9991
2 55776  40.0000  12.0000 0000000   0.0000 192.0000 14.15679836    12
CTC1_L_00131002-04
1 55777U 26491YY  26037.47802083  .00000000  00000+0  00000-0 0  9992
2 55777  40.0000  12.0000 0000000   0.0000 282.0000 14.15679836    13
CTC1_L_00131003-01
1 55778U 22992KQ  26037.47802083  .00000000  00000+0  00000-0 0  9995
2 55778  40.0000  24.0000 0000000   0.0000  24.0000 14.15679836    11
CTC1_L_00131003-02
1 55779U 24893EX  26037.47802083  .00000000  00000+0  00000-0 0  9998
2 55779  40.0000  24.0000 0000000   0.0000 114.0000 14.15679836    12
CTC1_L_00131003-03
1 55780U 22483QC  26037.47802083  .00000000  00000+0  00000-0 0  9993
2 55780  40.0000  24.0000 0000000   0.0000 204.0000 14.15679836    14
CTC1_L_00131003-04
1 55781U 25145ON  26037.47802083  .00000000  00000+0  00000-0 0  9992
2 55781  40.0000  24.0000 0000000   0.0000 294.0000 14.15679836    14
CTC1_L_00131004-01
1 55782U 22199LH  26037.47802083  .00000000  00000+0  00000-0 0  9999
2 55782  40.0000  36.0000 0000000   0.0000  36.0000 14.15679836    12
CTC1_L_00131004-02
1 55783U 25341HR  26037.47802083  .00000000  00000+0  00000-0 0  9992
2 55783  40.0000  36.0000 0000000   0.0000 126.0000 14.15679836    13
CTC1_L_00131004-03
1 55784U 26724WO  26037.47802083  .00000000  00000+0  00000-0 0  9999
2 55784  40.0000  36.0000 0000000   0.0000 216.0000 14.15679836    14
CTC1_L_00131004-04
1 55785U 22481O   26037.47802083  .00000000  00000+0  00000-0 0  9996
2 55785  40.0000  36.0000 0000000   0.0000 306.0000 14.15679836    15
CTC1_L_00131005-01
1 55786U 24148SZ  26037.47802083  .00000000  00000+0  00000-0 0  9999
2 55786  40.0000  48.0000 0000000   0.0000  48.0000 14.15679836    12
CTC1_L_00131005-02
1 55787U 22809OS  26037.47802083  .00000000  00000+0  00000-0 0  9992
2 55787  40.0000  48.0000 0000000   0.0000 138.0000 14.15679836    13
CTC1_L_00131005-03
1 55788U 25184EK  26037.47802083  .00000000  00000+0  00000-0 0  9992
2 55788  40.0000  48.0000 0000000   0.0000 228.0000 14.15679836    14
CTC1_L_00131005-04
1 55789U 22855IT  26037.47802083  .00000000  00000+0  00000-0 0  9995
2 55789  40.0000  48.0000 0000000   0.0000 318.0000 14.15679836    15
CTC1_L_00131006-01
1 55790U 24474TO  26037.47802083  .00000000  00000+0  00000-0 0  9996
2 55790  40.0000  60.0000 0000000   0.0000  60.0000 14.15679836    15
CTC1_L_00131006-02
1 55791U 22854ZR  26037.47802083  .00000000  00000+0  00000-0 0  9997
2 55791  40.0000  60.0000 0000000   0.0000 150.0000 14.15679836    16
CTC1_L_00131006-03
1 55792U 24172IS  26037.47802083  .00000000  00000+0  00000-0 0  9993
2 55792  40.0000  60.0000 0000000   0.0000 240.0000 14.15679836    17
CTC1_L_00131006-04
1 55793U 23580GL  26037.47802083  .00000000  00000+0  00000-0 0  9996
2 55793  40.0000  60.0000 0000000   0.0000 330.0000 14.15679836    18
CTC1_L_00131007-01
1 55794U 22095VU  26037.47802083  .00000000  00000+0  00000-0 0  9997
2 55794  40.0000  72.0000 0000000   0.0000  72.0000 14.15679836    15
CTC1_L_00131007-02
1 55795U 24970LJ  26037.47802083  .00000000  00000+0  00000-0 0  9992
2 55795  40.0000  72.0000 0000000   0.0000 162.0000 14.15679836    16
CTC1_L_00131007-03
1 55796U 24299ME  26037.47802083  .00000000  00000+0  00000-0 0  9997
2 55796  40.0000  72.0000 0000000   0.0000 252.0000 14.15679836    17
CTC1_L_00131007-04
1 55797U 25982QU  26037.47802083  .00000000  00000+0  00000-0 0  9998
2 55797  40.0000  72.0000 0000000   0.0000 342.0000 14.15679836    18
CTC1_L_00131008-01
1 55798U 25515AO  26037.47802083  .00000000  00000+0  00000-0 0  9991
2 55798  40.0000  84.0000 0000000   0.0000  84.0000 14.15679836    15
CTC1_L_00131008-02
1 55799U 23558HP  26037.47802083  .00000000  00000+0  00000-0 0  9997
2 55799  40.0000  84.0000 0000000   0.0000 174.0000 14.15679836    16
CTC1_L_00131008-03
1 55800U 23470IE  26037.47802083  .00000000  00000+0  00000-0 0  9993
2 55800  40.0000  84.0000 0000000   0.0000 264.0000 14.15679836    19
CTC1_L_00131008-04
1 55801U 22837GY  26037.47802083  .00000000  00000+0  00000-0 0  9990
2 55801  40.0000  84.0000 0000000   0.0000 354.0000 14.15679836    10
CTC1_L_00131009-01
1 55802U 26475SS  26037.47802083  .00000000  00000+0  00000-0 0  9993
2 55802  40.0000  96.0000 0000000   0.0000  96.0000 14.15679836    17
CTC1_L_00131009-02
1 55803U 24323SM  26037.47802083  .00000000  00000+0  00000-0 0  9994
2 55803  40.0000  96.0000 0000000   0.0000 186.0000 14.15679836    18
CTC1_L_00131009-03
1 55804U 22615VF  26037.47802083  .00000000  00000+0  00000-0 0  9997
2 55804  40.0000  96.0000 0000000   0.0000 276.0000 14.15679836    19
CTC1_L_00131009-04
1 55805U 26666WM  26037.47802083  .00000000  00000+0  00000-0 0  9998
2 55805  40.0000  96.0000 0000000   0.0000   6.0000 14.15679836    11
CTC1_L_00131010-01
1 55806U 22957DV  26037.47802083  .00000000  00000+0  00000-0 0  9998
2 55806  40.0000 108.0000 0000000   0.0000 108.0000 14.15679836    19
CTC1_L_00131010-02
1 55807U 26974UH  26037.47802083  .00000000  00000+0  00000-0 0  9992
2 55807  40.0000 108.0000 0000000   0.0000 198.0000 14.15679836    19
CTC1_L_00131010-03
1 55808U 23583BI  26037.47802083  .00000000  00000+0  00000-0 0  9996
2 55808  40.0000 108.0000 0000000   0.0000 288.0000 14.15679836    10
CTC1_L_00131010-04
1 55809U 25694ZM  26037.47802083  .00000000  00000+0  00000-0 0  9992
2 55809  40.0000 108.0000 0000000   0.0000  18.0000 14.15679836    12
CTC1_L_00131011-01
1 55810U 26945DT  26037.47802083  .00000000  00000+0  00000-0 0  9994
2 55810  40.0000 120.0000 0000000   0.0000 120.0000 14.15679836    12
CTC1_L_00131011-02
1 55811U 23051JY  26037.47802083  .00000000  00000+0  00000-0 0  9990
2 55811  40.0000 120.0000 0000000   0.0000 210.0000 14.15679836    13
CTC1_L_00131011-03
1 55812U 26388MF  26037.47802083  .00000000  00000+0  00000-0 0  9997
2 55812  40.0000 120.0000 0000000   0.0000 300.0000 14.15679836    14
CTC1_L_00131011-04
1 55813U 25512GC  26037.47802083  .00000000  00000+0  00000-0 0  9996
2 55813  40.0000 120.0000 0000000   0.0000  30.0000 14.15679836    15
CTC1_L_00131012-01
1 55814U 24948BN  26037.47802083  .00000000  00000+0  00000-0 0  9999
2 55814  40.0000 132.0000 0000000   0.0000 132.0000 14.15679836    12
CTC1_L_00131012-02
1 55815U 23129OD  26037.47802083  .00000000  00000+0  00000-0 0  9990
2 55815  40.0000 132.0000 0000000   0.0000 222.0000 14.15679836    13
CTC1_L_00131012-03
1 55816U 24632RM  26037.47802083  .00000000  00000+0  00000-0 0  9991
2 55816  40.0000 132.0000 0000000   0.0000 312.0000 14.15679836    14
CTC1_L_00131012-04
1 55817U 26823WR  26037.47802083  .00000000  00000+0  00000-0 0  9996
2 55817  40.0000 132.0000 0000000   0.0000  42.0000 14.15679836    15
CTC1_L_00131013-01
1 55818U 26341DA  26037.47802083  .00000000  00000+0  00000-0 0  9992
2 55818  40.0000 144.0000 0000000   0.0000 144.0000 14.15679836    12
CTC1_L_00131013-02
1 55819U 26768ZJ  26037.47802083  .00000000  00000+0  00000-0 0  9996
2 55819  40.0000 144.0000 0000000   0.0000 234.0000 14.15679836    13
CTC1_L_00131013-03
1 55820U 25475OT  26037.47802083  .00000000  00000+0  00000-0 0  9992
2 55820  40.0000 144.0000 0000000   0.0000 324.0000 14.15679836    15
CTC1_L_00131013-04
1 55821U 22166UM  26037.47802083  .00000000  00000+0  00000-0 0  9997
2 55821  40.0000 144.0000 0000000   0.0000  54.0000 14.15679836    16
CTC1_L_00131014-01
1 55822U 23033GG  26037.47802083  .00000000  00000+0  00000-0 0  9992
2 55822  40.0000 156.0000 0000000   0.0000 156.0000 14.15679836    13
CTC1_L_00131014-02
1 55823U 23988IT  26037.47802083  .00000000  00000+0  00000-0 0  9992
2 55823  40.0000 156.0000 0000000   0.0000 246.0000 14.15679836    14
CTC1_L_00131014-03
1 55824U 22499ZT  26037.47802083  .00000000  00000+0  00000-0 0  9999
2 55824  40.0000 156.0000 0000000   0.0000 336.0000 14.15679836    15
CTC1_L_00131014-04
1 55825U 25259TB  26037.47802083  .00000000  00000+0  00000-0 0  9997
2 55825  40.0000 156.0000 0000000   0.0000  66.0000 14.15679836    16
CTC1_L_00131015-01
1 55826U 22999GR  26037.47802083  .00000000  00000+0  00000-0 0  9996
2 55826  40.0000 168.0000 0000000   0.0000 168.0000 14.15679836    13
CTC1_L_00131015-02
1 55827U 23819KN  26037.47802083  .00000000  00000+0  00000-0 0  9999
2 55827  40.0000 168.0000 0000000   0.0000 258.0000 14.15679836    14
CTC1_L_00131015-03
1 55828U 26869II  26037.47802083  .00000000  00000+0  00000-0 0  9998
2 55828  40.0000 168.0000 0000000   0.0000 348.0000 14.15679836    15
CTC1_L_00131015-04
1 55829U 26206TM  26037.47802083  .00000000  00000+0  00000-0 0  9994
2 55829  40.0000 168.0000 0000000   0.0000  78.0000 14.15679836    16
CTC1_L_00131016-01
1 55830U 26916XN  26037.47802083  .00000000  00000+0  00000-0 0  9994
2 55830  40.0000 180.0000 0000000   0.0000 180.0000 14.15679836    16
CTC1_L_00131016-02
1 55831U 24326ME  26037.47802083  .00000000  00000+0  00000-0 0  9998
2 55831  40.0000 180.0000 0000000   0.0000 270.0000 14.15679836    17
